*******************************************************************************
 Revised: April 12, 2021                 Earth                              399
 
 GEOPHYSICAL PROPERTIES (revised May 9, 2022):
  Vol. Mean Radius (km)    = 6371.01+-0.02   Mass x10^24 (kg)= 5.97219+-0.0006
  Equ. radius, km          = 6378.137        Mass layers:
  Polar axis, km           = 6356.752          Atmos         = 5.1   x 10^18 kg
  Flattening               = 1/298.257223563   oceans        = 1.4   x 10^21 kg
  Density, g/cm^3          = 5.51              crust         = 2.6   x 10^22 kg
  J2 (IERS 2010)           = 0.00108262545     mantle        = 4.043 x 10^24 kg
  g_p, m/s^2  (polar)      = 9.8321863685      outer core    = 1.835 x 10^24 kg
  g_e, m/s^2  (equatorial) = 9.7803267715      inner core    = 9.675 x 10^22 kg
  g_o, m/s^2               = 9.82022         Fluid core rad  = 3480 km
  GM, km^3/s^2             = 398600.435436   Inner core rad  = 1215 km
  GM 1-sigma, km^3/s^2     =      0.0014     Escape velocity = 11.186 km/s
  Rot. Rate (rad/s)        = 0.00007292115   Surface area:
  Mean sidereal day, hr    = 23.9344695944     land          = 1.48 x 10^8 km
  Mean solar day 2000.0, s = 86400.002         sea           = 3.62 x 10^8 km
  Mean solar day 1820.0, s = 86400.0         Love no., k2    = 0.299
  Moment of inertia        = 0.3308          Atm. pressure   = 1.0 bar
  Mean surface temp (Ts), K= 287.6           Volume, km^3    = 1.08321 x 10^12
  Mean effect. temp (Te), K= 255             Magnetic moment = 0.61 gauss Rp^3
  Geometric albedo         = 0.367           Vis. mag. V(1,0)= -3.86
  Solar Constant (W/m^2)   = 1367.6 (mean), 1414 (perihelion), 1322 (aphelion)
 HELIOCENTRIC ORBIT CHARACTERISTICS:
  Obliquity to orbit, deg  = 23.4392911  Sidereal orb period  = 1.0000174 y
  Orbital speed, km/s      = 29.79       Sidereal orb period  = 365.25636 d
  Mean daily motion, deg/d = 0.9856474   Hill's sphere radius = 234.9       
*******************************************************************************


*******************************************************************************
Ephemeris / WWW_USER Wed May 21 10:34:24 2025 Pasadena, USA      / Horizons
*******************************************************************************
Target body name: Earth (399)                     {source: DE441}
Center body name: Solar System Barycenter (0)     {source: DE441}
Center-site name: BODY CENTER
*******************************************************************************
Start time      : A.D. 1755-Jan-01 00:00:00.0000 TDB
Stop  time      : A.D. 1755-Jan-31 00:00:00.0000 TDB
Step-size       : 1440 minutes
*******************************************************************************
Center geodetic : 0.0, 0.0, 0.0                   {E-lon(deg),Lat(deg),Alt(km)}
Center cylindric: 0.0, 0.0, 0.0                   {E-lon(deg),Dxy(km),Dz(km)}
Center radii    : (undefined)
Output units    : KM-S
Calendar mode   : Mixed Julian/Gregorian
Output type     : GEOMETRIC cartesian states
Output format   : 3 (position, velocity, LT, range, range-rate)
Reference frame : Ecliptic of J2000.0
*******************************************************************************
JDTDB
   X     Y     Z
   VX    VY    VZ
   LT    RG    RR
*******************************************************************************
$$SOE
2362082.500000000 = A.D. 1755-Jan-23 00:00:00.0000 TDB 
 X =-8.636837662911892E+07 Y = 1.189224647865676E+08 Z = 4.878320211204141E+04
 VX=-2.451942707399720E+01 VY=-1.768693776676898E+01 VZ=-1.049140331724185E-02
 LT= 4.902603777967284E+02 RG= 1.469763637196898E+08 RR= 9.748755745166605E-02
2362083.500000000 = A.D. 1755-Jan-24 00:00:00.0000 TDB 
 X =-8.847322417166790E+07 Y = 1.173760750913645E+08 Z = 4.785792351997644E+04
 VX=-2.420274456535157E+01 VY=-1.810812662131001E+01 VZ=-1.093102048981454E-02
 LT= 4.902899394915555E+02 RG= 1.469852260928447E+08 RR= 1.077216582787950E-01
2362084.500000000 = A.D. 1755-Jan-25 00:00:00.0000 TDB 
 X =-9.055041465757243E+07 Y = 1.157935525860993E+08 Z = 4.689376842372864E+04
 VX=-2.387924807793152E+01 VY=-1.852334150918971E+01 VZ=-1.138976201267550E-02
 LT= 4.903225030371595E+02 RG= 1.469949883982225E+08 RR= 1.183153394123007E-01
2362085.500000000 = A.D. 1755-Jan-26 00:00:00.0000 TDB 
 X =-9.259936709591489E+07 Y = 1.141754139790829E+08 Z = 4.588952873122692E+04
 VX=-2.354911385300696E+01 VY=-1.893257480614284E+01 VZ=-1.185687708487571E-02
 LT= 4.903581674874362E+02 RG= 1.470056803314342E+08 RR= 1.292326128312747E-01
2362086.500000000 = A.D. 1755-Jan-27 00:00:00.0000 TDB 
 X =-9.461951477325751E+07 Y = 1.125221752788123E+08 Z = 4.484504660941660E+04
 VX=-2.321249362519018E+01 VY=-1.933584996274963E+01 VZ=-1.231882326648304E-02
 LT= 4.903970174798212E+02 RG= 1.470173272661445E+08 RR= 1.404081598077595E-01
2362087.500000000 = A.D. 1755-Jan-28 00:00:00.0000 TDB 
 X =-9.661030246377909E+07 Y = 1.108343493241184E+08 Z = 4.376144044181705E+04
 VX=-2.286949899387653E+01 VY=-1.973321508984544E+01 VZ=-1.275974790390855E-02
 LT= 4.904391138836975E+02 RG= 1.470299474505356E+08 RR= 1.517418895913473E-01
2362088.500000000 = A.D. 1755-Jan-29 00:00:00.0000 TDB 
 X =-9.857118234960651E+07 Y = 1.091124442572069E+08 Z = 4.264125387670845E+04
 VX=-2.252018812947248E+01 VY=-2.012472747709805E+01 VZ=-1.316279967872092E-02
 LT= 4.904844837389601E+02 RG= 1.470435489909639E+08 RR= 1.631000102189149E-01
2362089.500000000 = A.D. 1755-Jan-30 00:00:00.0000 TDB 
 X =-1.005016091045064E+08 Y = 1.073569636846399E+08 Z = 4.148845796231925E+04
 VX=-2.216456063982280E+01 VY=-2.051043061501437E+01 VZ=-1.351216919194353E-02
 LT= 4.905331117491402E+02 RG= 1.470581273016634E+08 RR= 1.743249052296479E-01
2362090.500000000 = A.D. 1755-Jan-31 00:00:00.0000 TDB 
 X =-1.024010350509182E+08 Y = 1.055684089575817E+08 Z = 4.030826140359789E+04
 VX=-2.180256478473098E+01 VY=-2.089032932458846E+01 VZ=-1.379538411449754E-02
 LT= 4.905849358219098E+02 RG= 1.470736637678226E+08 RR= 1.852528492082560E-01
